{
  "type": "FeatureCollection",
  "features": [
    {
      "type": "Feature",
      "properties": {
        "norad_id": 41556,
        "name": "ZIYUAN 3-2 (ZY 3-2)",
        "group": "resource",
        "lat": -73.84071871998869,
        "lon": 77.58657886677959,
        "alt_km": 500.82209415169837,
        "timestamp": "2025-12-02T13:52:16.933043+00:00",
        "meta_object_name": "ZIYUAN 3-2 (ZY 3-2)",
        "meta_object_id": "2016-033A",
        "meta_epoch": "2025-12-02T07:53:17.043936",
        "meta_mean_motion": 15.2126344,
        "meta_eccentricity": 0.00124286,
        "meta_inclination": 97.4061,
        "meta_ra_of_asc_node": 50.6672,
        "meta_arg_of_pericenter": 289.7997,
        "meta_mean_anomaly": 70.1898,
        "meta_ephemeris_type": 0,
        "meta_classification_type": "U",
        "meta_norad_cat_id": 41556,
        "meta_element_set_no": 999,
        "meta_rev_at_epoch": 52805,
        "meta_bstar": 0.00038599541,
        "meta_mean_motion_dot": 8.576e-05,
        "meta_mean_motion_ddot": 0,
        "tle_line1": "1 41556U 16033A   25336.32866949  .00008576  00000+0  38600-3 0  9995",
        "tle_line2": "2 41556  97.4061  50.6672 0012428 289.7997  70.1898 15.21263440528055"
      },
      "geometry": {
        "type": "Point",
        "coordinates": [
          77.58657886677959,
          -73.84071871998869
        ]
      }
    },
    {
      "type": "Feature",
      "properties": {
        "norad_id": 41599,
        "name": "CARTOSAT-2C",
        "group": "resource",
        "lat": -51.84923838100947,
        "lon": 43.55906120522661,
        "alt_km": 521.7718947467174,
        "timestamp": "2025-12-02T13:52:16.933053+00:00",
        "meta_object_name": "CARTOSAT-2C",
        "meta_object_id": "2016-040A",
        "meta_epoch": "2025-12-02T07:46:47.042976",
        "meta_mean_motion": 15.19345266,
        "meta_eccentricity": 0.00113944,
        "meta_inclination": 97.4782,
        "meta_ra_of_asc_node": 33.6815,
        "meta_arg_of_pericenter": 100.9388,
        "meta_mean_anomaly": 259.3129,
        "meta_ephemeris_type": 0,
        "meta_classification_type": "U",
        "meta_norad_cat_id": 41599,
        "meta_element_set_no": 999,
        "meta_rev_at_epoch": 52382,
        "meta_bstar": 3.1003301e-05,
        "meta_mean_motion_dot": 5.87e-06,
        "meta_mean_motion_ddot": 0,
        "tle_line1": "1 41599U 16040A   25336.32415559  .00000587  00000+0  31003-4 0  9992",
        "tle_line2": "2 41599  97.4782  33.6815 0011394 100.9388 259.3129 15.19345266523823"
      },
      "geometry": {
        "type": "Point",
        "coordinates": [
          43.55906120522661,
          -51.84923838100947
        ]
      }
    },
    {
      "type": "Feature",
      "properties": {
        "norad_id": 41601,
        "name": "SKYSAT-C1",
        "group": "resource",
        "lat": -59.24951430394213,
        "lon": -177.72533208873887,
        "alt_km": 478.33644897087015,
        "timestamp": "2025-12-02T13:52:16.933063+00:00",
        "meta_object_name": "SKYSAT-C1",
        "meta_object_id": "2016-040C",
        "meta_epoch": "2025-12-02T01:51:22.944960",
        "meta_mean_motion": 15.32287703,
        "meta_eccentricity": 0.00034131,
        "meta_inclination": 96.9847,
        "meta_ra_of_asc_node": 13.6943,
        "meta_arg_of_pericenter": 41.9438,
        "meta_mean_anomaly": 318.2066,
        "meta_ephemeris_type": 0,
        "meta_classification_type": "U",
        "meta_norad_cat_id": 41601,
        "meta_element_set_no": 999,
        "meta_rev_at_epoch": 52764,
        "meta_bstar": 0.00034358842,
        "meta_mean_motion_dot": 0.00010645,
        "meta_mean_motion_ddot": 0,
        "tle_line1": "1 41601U 16040C   25336.07734890  .00010645  00000+0  34359-3 0  9992",
        "tle_line2": "2 41601  96.9847  13.6943 0003413  41.9438 318.2066 15.32287703527641"
      },
      "geometry": {
        "type": "Point",
        "coordinates": [
          -177.72533208873887,
          -59.24951430394213
        ]
      }
    },
    {
      "type": "Feature",
      "properties": {
        "norad_id": 41603,
        "name": "LAPAN-A3",
        "group": "resource",
        "lat": 57.89103078363409,
        "lon": -37.02144295110006,
        "alt_km": 460.95964250616817,
        "timestamp": "2025-12-02T13:52:16.933073+00:00",
        "meta_object_name": "LAPAN-A3",
        "meta_object_id": "2016-040E",
        "meta_epoch": "2025-12-02T07:20:38.757696",
        "meta_mean_motion": 15.31422555,
        "meta_eccentricity": 0.00109737,
        "meta_inclination": 97.1424,
        "meta_ra_of_asc_node": 334.2435,
        "meta_arg_of_pericenter": 12.0386,
        "meta_mean_anomaly": 348.1116,
        "meta_ephemeris_type": 0,
        "meta_classification_type": "U",
        "meta_norad_cat_id": 41603,
        "meta_element_set_no": 999,
        "meta_rev_at_epoch": 52466,
        "meta_bstar": 0.00016222424,
        "meta_mean_motion_dot": 4.857e-05,
        "meta_mean_motion_ddot": 0,
        "tle_line1": "1 41603U 16040E   25336.30600414  .00004857  00000+0  16222-3 0  9991",
        "tle_line2": "2 41603  97.1424 334.2435 0010973  12.0386 348.1116 15.31422555524667"
      },
      "geometry": {
        "type": "Point",
        "coordinates": [
          -37.02144295110006,
          57.89103078363409
        ]
      }
    },
    {
      "type": "Feature",
      "properties": {
        "norad_id": 41604,
        "name": "BIROS",
        "group": "resource",
        "lat": -7.877952319957211,
        "lon": 8.619142435987113,
        "alt_km": 320.58504890133736,
        "timestamp": "2025-12-02T13:52:16.933084+00:00",
        "meta_object_name": "BIROS",
        "meta_object_id": "2016-040F",
        "meta_epoch": "2025-12-02T01:47:12.310656",
        "meta_mean_motion": 15.85419882,
        "meta_eccentricity": 0.0002524,
        "meta_inclination": 97.0713,
        "meta_ra_of_asc_node": 7.1141,
        "meta_arg_of_pericenter": 176.7275,
        "meta_mean_anomaly": 183.4013,
        "meta_ephemeris_type": 0,
        "meta_classification_type": "U",
        "meta_norad_cat_id": 41604,
        "meta_element_set_no": 999,
        "meta_rev_at_epoch": 52703,
        "meta_bstar": 0.00063105639,
        "meta_mean_motion_dot": 0.00152369,
        "meta_mean_motion_ddot": 0,
        "tle_line1": "1 41604U 16040F   25336.07444804  .00152369  00000+0  63106-3 0  9990",
        "tle_line2": "2 41604  97.0713   7.1141 0002524 176.7275 183.4013 15.85419882527034"
      },
      "geometry": {
        "type": "Point",
        "coordinates": [
          8.619142435987113,
          -7.877952319957211
        ]
      }
    },
    {
      "type": "Feature",
      "properties": {
        "norad_id": 41727,
        "name": "GAOFEN-3",
        "group": "resource",
        "lat": -35.747097094531675,
        "lon": 156.21034550265327,
        "alt_km": 758.2529687009937,
        "timestamp": "2025-12-02T13:52:16.933094+00:00",
        "meta_object_name": "GAOFEN-3",
        "meta_object_id": "2016-049A",
        "meta_epoch": "2025-12-02T07:52:38.693568",
        "meta_mean_motion": 14.42230603,
        "meta_eccentricity": 0.00015372,
        "meta_inclination": 98.4042,
        "meta_ra_of_asc_node": 342.0732,
        "meta_arg_of_pericenter": 76.7088,
        "meta_mean_anomaly": 283.4273,
        "meta_ephemeris_type": 0,
        "meta_classification_type": "U",
        "meta_norad_cat_id": 41727,
        "meta_element_set_no": 999,
        "meta_rev_at_epoch": 49027,
        "meta_bstar": 5.3240169e-05,
        "meta_mean_motion_dot": 1.32e-06,
        "meta_mean_motion_ddot": 0,
        "tle_line1": "1 41727U 16049A   25336.32822562  .00000132  00000+0  53240-4 0  9993",
        "tle_line2": "2 41727  98.4042 342.0732 0001537  76.7088 283.4273 14.42230603490279"
      },
      "geometry": {
        "type": "Point",
        "coordinates": [
          156.21034550265327,
          -35.747097094531675
        ]
      }
    },
    {
      "type": "Feature",
      "properties": {
        "norad_id": 41771,
        "name": "SKYSAT-C4",
        "group": "resource",
        "lat": -5.3085160807246705,
        "lon": -178.384887053496,
        "alt_km": 444.49698060467654,
        "timestamp": "2025-12-02T13:52:16.933104+00:00",
        "meta_object_name": "SKYSAT-C4",
        "meta_object_id": "2016-058B",
        "meta_epoch": "2025-12-02T02:10:01.106976",
        "meta_mean_motion": 15.41785331,
        "meta_eccentricity": 6.741e-05,
        "meta_inclination": 96.9392,
        "meta_ra_of_asc_node": 1.7997,
        "meta_arg_of_pericenter": 108.5071,
        "meta_mean_anomaly": 251.625,
        "meta_ephemeris_type": 0,
        "meta_classification_type": "U",
        "meta_norad_cat_id": 41771,
        "meta_element_set_no": 999,
        "meta_rev_at_epoch": 51503,
        "meta_bstar": 0.00040333476,
        "meta_mean_motion_dot": 0.00017006,
        "meta_mean_motion_ddot": 0,
        "tle_line1": "1 41771U 16058B   25336.09029059  .00017006  00000+0  40333-3 0  9992",
        "tle_line2": "2 41771  96.9392   1.7997 0000674 108.5071 251.6250 15.41785331515035"
      },
      "geometry": {
        "type": "Point",
        "coordinates": [
          -178.384887053496,
          -5.3085160807246705
        ]
      }
    }
  ]
}